start=new Date('2023-03-28T00:00:00.000Z').valueOf();
sats=[{"TLE_LINE2":"2 55283  70.0003 242.2503 0003125 276.6667 207.1376 15.15292850  1302","DECAY_DATE":null,"OBJECT_NAME":"STARLINK-5317","GP_ID":"228995835","EPHEMERIS_TYPE":"0","MEAN_ELEMENT_THEORY":"SGP4","PERIOD":"95.031","APOAPSIS":"522.247","TLE_LINE1":"1 55283U 23010Q   23086.91667824 -.01076885  00000-0 -61605-1 0  9997","REF_FRAME":"TEME","OBJECT_ID":"2023-010Q","OBJECT_TYPE":"PAYLOAD","BSTAR":"-0.06160500000000","SITE":"AFWTR","RA_OF_ASC_NODE":"242.2503","SEMIMAJOR_AXIS":"6898.227","CENTER_NAME":"EARTH","RCS_SIZE":"LARGE","INCLINATION":"70.0003","ECCENTRICITY":"0.00031250","ELEMENT_SET_NO":"999","COUNTRY_CODE":"US","MEAN_ANOMALY":"207.1376","ARG_OF_PERICENTER":"276.6667","MEAN_MOTION_DOT":"-0.01076885","MEAN_MOTION":"15.15292850","LAUNCH_DATE":"2023-01-19","FILE":"3872915","TIME_SYSTEM":"UTC","NORAD_CAT_ID":"55283","REV_AT_EPOCH":"130","PERIAPSIS":"517.936","EPOCH":"2023-03-27T22:00:00.999936","CLASSIFICATION_TYPE":"U","MEAN_MOTION_DDOT":"0.0000000000000"},{"MEAN_MOTION_DDOT":"0.0000000000000","CLASSIFICATION_TYPE":"U","PERIAPSIS":"511.569","EPOCH":"2023-03-28T00:00:00.999648","REV_AT_EPOCH":"1103","TIME_SYSTEM":"UTC","NORAD_CAT_ID":"55284","FILE":"3872901","MEAN_MOTION":"15.17415441","LAUNCH_DATE":"2023-01-19","MEAN_MOTION_DOT":"-0.01134479","ARG_OF_PERICENTER":"268.4128","COUNTRY_CODE":"US","MEAN_ANOMALY":"84.2812","ECCENTRICITY":"0.00030300","ELEMENT_SET_NO":"999","CENTER_NAME":"EARTH","INCLINATION":"70.0002","RCS_SIZE":"LARGE","SEMIMAJOR_AXIS":"6891.792","SITE":"AFWTR","RA_OF_ASC_NODE":"241.8826","REF_FRAME":"TEME","OBJECT_TYPE":"PAYLOAD","BSTAR":"-0.06133000000000","OBJECT_ID":"2023-010R","TLE_LINE1":"1 55284U 23010R   23087.00001157 -.01134479  00000-0 -61330-1 0  9999","PERIOD":"94.898","APOAPSIS":"515.745","MEAN_ELEMENT_THEORY":"SGP4","OBJECT_NAME":"STARLINK-5337","GP_ID":"228969834","EPHEMERIS_TYPE":"0","DECAY_DATE":null,"TLE_LINE2":"2 55284  70.0002 241.8826 0003030 268.4128  84.2812 15.17415441 11036"},{"TLE_LINE1":"1 55285U 23010S   23086.82509227 -.00001279  00000-0 -88678-5 0  9998","BSTAR":"-0.00000886780000","OBJECT_TYPE":"PAYLOAD","OBJECT_ID":"2023-010S","REF_FRAME":"TEME","PERIOD":"91.723","APOAPSIS":"361.301","EPHEMERIS_TYPE":"0","OBJECT_NAME":"STARLINK-5332","GP_ID":"228994834","MEAN_ELEMENT_THEORY":"SGP4","DECAY_DATE":null,"TLE_LINE2":"2 55285  70.0003 239.5826 0003303 262.6155  97.4665 15.69938116 12265","PERIAPSIS":"356.851","EPOCH":"2023-03-27T19:48:07.972128","REV_AT_EPOCH":"1226","MEAN_MOTION_DDOT":"0.0000000000000","CLASSIFICATION_TYPE":"U","LAUNCH_DATE":"2023-01-19","MEAN_MOTION":"15.69938116","TIME_SYSTEM":"UTC","NORAD_CAT_ID":"55285","FILE":"3872915","MEAN_ANOMALY":"97.4665","COUNTRY_CODE":"US","ELEMENT_SET_NO":"999","ECCENTRICITY":"0.00033030","MEAN_MOTION_DOT":"-0.00001279","ARG_OF_PERICENTER":"262.6155","SEMIMAJOR_AXIS":"6737.211","RA_OF_ASC_NODE":"239.5826","SITE":"AFWTR","INCLINATION":"70.0003","RCS_SIZE":"LARGE","CENTER_NAME":"EARTH"},{"REF_FRAME":"TEME","OBJECT_ID":"2023-010T","OBJECT_TYPE":"PAYLOAD","BSTAR":"0.00017904000000","TLE_LINE1":"1 55286U 23010T   23086.84611526  .00021384  00000-0  17904-3 0  9996","PERIOD":"91.723","APOAPSIS":"361.363","MEAN_ELEMENT_THEORY":"SGP4","OBJECT_NAME":"STARLINK-5338","GP_ID":"228995084","EPHEMERIS_TYPE":"0","TLE_LINE2":"2 55286  70.0021 239.6622 0003398 287.2437  72.8387 15.69939035 11382","DECAY_DATE":null,"CLASSIFICATION_TYPE":"U","MEAN_MOTION_DDOT":"0.0000000000000","REV_AT_EPOCH":"1138","PERIAPSIS":"356.784","EPOCH":"2023-03-27T20:18:24.358464","FILE":"3872915","NORAD_CAT_ID":"55286","TIME_SYSTEM":"UTC","MEAN_MOTION":"15.69939035","LAUNCH_DATE":"2023-01-19","ARG_OF_PERICENTER":"287.2437","MEAN_MOTION_DOT":"0.00021384","ECCENTRICITY":"0.00033980","ELEMENT_SET_NO":"999","COUNTRY_CODE":"US","MEAN_ANOMALY":"72.8387","CENTER_NAME":"EARTH","INCLINATION":"70.0021","RCS_SIZE":"LARGE","SITE":"AFWTR","RA_OF_ASC_NODE":"239.6622","SEMIMAJOR_AXIS":"6737.208"},{"TLE_LINE1":"1 55287U 23010U   23087.00001157  .00092690  00000-0  51000-3 0  9992","REF_FRAME":"TEME","OBJECT_TYPE":"PAYLOAD","BSTAR":"0.00051000000000","OBJECT_ID":"2023-010U","PERIOD":"91.180","APOAPSIS":"335.476","GP_ID":"228969624","OBJECT_NAME":"STARLINK-5341","EPHEMERIS_TYPE":"0","MEAN_ELEMENT_THEORY":"SGP4","DECAY_DATE":null,"TLE_LINE2":"2 55287  69.9947 238.4955 0004520 272.2462 133.7906 15.79293629 11111","PERIAPSIS":"329.410","EPOCH":"2023-03-28T00:00:00.999648","REV_AT_EPOCH":"1111","MEAN_MOTION_DDOT":"0.0000000000000","CLASSIFICATION_TYPE":"U","MEAN_MOTION":"15.79293629","LAUNCH_DATE":"2023-01-19","NORAD_CAT_ID":"55287","TIME_SYSTEM":"UTC","FILE":"3872895","COUNTRY_CODE":"US","MEAN_ANOMALY":"133.7906","ECCENTRICITY":"0.00045200","ELEMENT_SET_NO":"999","MEAN_MOTION_DOT":"0.00092690","ARG_OF_PERICENTER":"272.2462","SEMIMAJOR_AXIS":"6710.578","SITE":"AFWTR","RA_OF_ASC_NODE":"238.4955","CENTER_NAME":"EARTH","RCS_SIZE":"LARGE","INCLINATION":"69.9947"},{"MEAN_ELEMENT_THEORY":"SGP4","GP_ID":"228996086","OBJECT_NAME":"STARLINK-5311","EPHEMERIS_TYPE":"0","TLE_LINE2":"2 55288  70.0002 239.6591 0003940 276.2613  83.8133 15.69930378 11387","DECAY_DATE":null,"REF_FRAME":"TEME","BSTAR":"0.00003287300000","OBJECT_TYPE":"PAYLOAD","OBJECT_ID":"2023-010V","TLE_LINE1":"1 55288U 23010V   23086.84526872  .00003743  00000-0  32873-4 0  9999","APOAPSIS":"361.753","PERIOD":"91.724","ARG_OF_PERICENTER":"276.2613","MEAN_MOTION_DOT":"0.00003743","ECCENTRICITY":"0.00039400","ELEMENT_SET_NO":"999","COUNTRY_CODE":"US","MEAN_ANOMALY":"83.8133","CENTER_NAME":"EARTH","RCS_SIZE":"LARGE","INCLINATION":"70.0002","SITE":"AFWTR","RA_OF_ASC_NODE":"239.6591","SEMIMAJOR_AXIS":"6737.233","CLASSIFICATION_TYPE":"U","MEAN_MOTION_DDOT":"0.0000000000000","REV_AT_EPOCH":"1138","EPOCH":"2023-03-27T20:17:11.217408","PERIAPSIS":"356.444","FILE":"3872915","TIME_SYSTEM":"UTC","NORAD_CAT_ID":"55288","MEAN_MOTION":"15.69930378","LAUNCH_DATE":"2023-01-19"},{"DECAY_DATE":null,"TLE_LINE2":"2 55289  69.9988 239.6612 0004191 271.0819  88.9896 15.69941350 11386","EPHEMERIS_TYPE":"0","OBJECT_NAME":"STARLINK-5320","GP_ID":"228995334","MEAN_ELEMENT_THEORY":"SGP4","PERIOD":"91.723","APOAPSIS":"361.890","TLE_LINE1":"1 55289U 23010W   23086.84578666  .00000643  00000-0  71143-5 0  9998","OBJECT_TYPE":"PAYLOAD","OBJECT_ID":"2023-010W","BSTAR":"0.00000711430000","REF_FRAME":"TEME","SEMIMAJOR_AXIS":"6737.202","RA_OF_ASC_NODE":"239.6612","SITE":"AFWTR","RCS_SIZE":"LARGE","INCLINATION":"69.9988","CENTER_NAME":"EARTH","MEAN_ANOMALY":"88.9896","COUNTRY_CODE":"US","ELEMENT_SET_NO":"999","ECCENTRICITY":"0.00041910","MEAN_MOTION_DOT":"0.00000643","ARG_OF_PERICENTER":"271.0819","LAUNCH_DATE":"2023-01-19","MEAN_MOTION":"15.69941350","NORAD_CAT_ID":"55289","TIME_SYSTEM":"UTC","FILE":"3872915","EPOCH":"2023-03-27T20:17:55.967424","PERIAPSIS":"356.243","REV_AT_EPOCH":"1138","MEAN_MOTION_DDOT":"0.0000000000000","CLASSIFICATION_TYPE":"U"},{"MEAN_MOTION_DDOT":"0.0000000000000","CLASSIFICATION_TYPE":"U","PERIAPSIS":"356.375","EPOCH":"2023-03-27T20:17:48.553440","REV_AT_EPOCH":"1138","NORAD_CAT_ID":"55290","TIME_SYSTEM":"UTC","FILE":"3872915","MEAN_MOTION":"15.69913999","LAUNCH_DATE":"2023-01-19","MEAN_MOTION_DOT":"0.00004271","ARG_OF_PERICENTER":"278.1493","COUNTRY_CODE":"US","MEAN_ANOMALY":"81.9236","ECCENTRICITY":"0.00041120","ELEMENT_SET_NO":"999","CENTER_NAME":"EARTH","INCLINATION":"70.0022","RCS_SIZE":"LARGE","SEMIMAJOR_AXIS":"6737.280","SITE":"AFWTR","RA_OF_ASC_NODE":"239.6618","REF_FRAME":"TEME","OBJECT_ID":"2023-010X","OBJECT_TYPE":"PAYLOAD","BSTAR":"0.00003728700000","TLE_LINE1":"1 55290U 23010X   23086.84570085  .00004271  00000-0  37287-4 0  9998","PERIOD":"91.725","APOAPSIS":"361.915","MEAN_ELEMENT_THEORY":"SGP4","OBJECT_NAME":"STARLINK-5266","GP_ID":"228995584","EPHEMERIS_TYPE":"0","DECAY_DATE":null,"TLE_LINE2":"2 55290  70.0022 239.6618 0004112 278.1493  81.9236 15.69913999 11384"},{"TLE_LINE2":"2 55291  70.0014 239.6609 0003922 284.5265  75.5495 15.69926345 11387","DECAY_DATE":null,"MEAN_ELEMENT_THEORY":"SGP4","GP_ID":"228995836","OBJECT_NAME":"STARLINK-5327","EPHEMERIS_TYPE":"0","PERIOD":"91.724","APOAPSIS":"361.752","REF_FRAME":"TEME","OBJECT_ID":"2023-010Y","OBJECT_TYPE":"PAYLOAD","BSTAR":"-0.00004706200000","TLE_LINE1":"1 55291U 23010Y   23086.84557626 -.00005869  00000-0 -47062-4 0  9993","CENTER_NAME":"EARTH","INCLINATION":"70.0014","RCS_SIZE":"LARGE","SITE":"AFWTR","RA_OF_ASC_NODE":"239.6609","SEMIMAJOR_AXIS":"6737.245","ARG_OF_PERICENTER":"284.5265","MEAN_MOTION_DOT":"-0.00005869","ECCENTRICITY":"0.00039220","ELEMENT_SET_NO":"999","COUNTRY_CODE":"US","MEAN_ANOMALY":"75.5495","FILE":"3872915","NORAD_CAT_ID":"55291","TIME_SYSTEM":"UTC","MEAN_MOTION":"15.69926345","LAUNCH_DATE":"2023-01-19","CLASSIFICATION_TYPE":"U","MEAN_MOTION_DDOT":"0.0000000000000","REV_AT_EPOCH":"1138","EPOCH":"2023-03-27T20:17:37.788864","PERIAPSIS":"356.467"},{"MEAN_ELEMENT_THEORY":"SGP4","EPHEMERIS_TYPE":"0","GP_ID":"228996586","OBJECT_NAME":"STARLINK-5325","TLE_LINE2":"2 55292  69.9995 239.6595 0003902 286.3375  73.7391 15.69937324 11381","DECAY_DATE":null,"OBJECT_TYPE":"PAYLOAD","OBJECT_ID":"2023-010Z","BSTAR":"-0.00002906400000","REF_FRAME":"TEME","TLE_LINE1":"1 55292U 23010Z   23086.84516123 -.00003709  00000-0 -29064-4 0  9994","APOAPSIS":"361.707","PERIOD":"91.723","ARG_OF_PERICENTER":"286.3375","MEAN_MOTION_DOT":"-0.00003709","ELEMENT_SET_NO":"999","ECCENTRICITY":"0.00039020","MEAN_ANOMALY":"73.7391","COUNTRY_CODE":"US","RCS_SIZE":"LARGE","INCLINATION":"69.9995","CENTER_NAME":"EARTH","RA_OF_ASC_NODE":"239.6595","SITE":"AFWTR","SEMIMAJOR_AXIS":"6737.213","CLASSIFICATION_TYPE":"U","MEAN_MOTION_DDOT":"0.0000000000000","REV_AT_EPOCH":"1138","PERIAPSIS":"356.449","EPOCH":"2023-03-27T20:17:01.930272","FILE":"3872915","TIME_SYSTEM":"UTC","NORAD_CAT_ID":"55292","LAUNCH_DATE":"2023-01-19","MEAN_MOTION":"15.69937324"}];
